[
    {
        "Altitude(m)": 612513.9214884578,
        "Argument of Periapsis(deg)": 0.0,
        "Eccentricity": 0.0,
        "Inclination(deg)": 60.0,
        "Latitude(deg)": -28.135930511023453,
        "Longitude(deg)": 17.913172222552145,
        "Mean Anomaly(deg)": -147.27270000000004,
        "RAAN(deg)": 280.0,
        "Satellite Name": "Test1 1245",
        "Satellite Number": 1245,
        "Semi-Major Axis(m)": 6980739.136638005,
        "Time(s)": 0
    },
    {
        "Altitude(m)": 612708.2891327554,
        "Argument of Periapsis(deg)": 0.00010418945913296404,
        "Eccentricity": 0.0,
        "Inclination(deg)": 60.0,
        "Latitude(deg)": -28.64766899888805,
        "Longitude(deg)": 18.27040372486145,
        "Mean Anomaly(deg)": -146.65259385453817,
        "RAAN(deg)": 279.99957995086027,
        "Satellite Name": "Test1 1245",
        "Satellite Number": 1245,
        "Semi-Major Axis(m)": 6980739.136638005,
        "Time(s)": 10
    }
]